IRIDIUM 150             
1 43257U 18030J   24342.53489955 -.00000096  00000+0 -41317-4 0  9992
2 43257  86.3987 163.1554 0001580  89.8627 270.2750 14.34217331350373
IRIDIUM 143             
1 43258U 18030K   24342.58563893  .00000006  00000+0 -48553-5 0  9992
2 43258  86.3993 163.2051 0001357  87.3481 272.7870 14.34217615350316
IRIDIUM 161             
1 43478U 18047C   24342.44235014  .00001062  00000+0  30961-3 0  9994
2 43478  86.4474 321.1342 0002113  86.5610 273.5832 14.43277532344830
IRIDIUM 152             
1 43479U 18047D   24342.48858966  .00000560  00000+0  19302-3 0  9994
2 43479  86.3948 320.9744 0002340  85.0670 275.0793 14.34218863342698
IRIDIUM 147             
1 43480U 18047E   24342.49493337  .00000281  00000+0  93332-4 0  9990
2 43480  86.3950 320.9672 0002557  89.1032 271.0457 14.34217245342696
IRIDIUM 110             
1 43481U 18047F   24342.50127633  .00000258  00000+0  84885-4 0  9993
2 43481  86.3952 321.0417 0002640  82.7416 277.4080 14.34217031342680
IRIDIUM 162             
1 43482U 18047G   24342.43605687  .00001044  00000+0  30425-3 0  9990
2 43482  86.4473 321.0346 0002515  81.7289 278.4197 14.43277852344824
IRIDIUM 160             
1 43569U 18061A   24342.37734419  .00000095  00000+0  27029-4 0  9993
2 43569  86.3951 289.4513 0002345  89.8950 270.2514 14.34218207333569
